{"type":"FeatureCollection","features":[{"type":"Feature","properties":{"name":"North America"},"geometry":{"type":"Polygon","coordinates":[[[-168,72],[-145,70],[-130,62],[-112,58],[-95,50],[-82,28],[-98,14],[-115,18],[-125,30],[-145,48],[-168,55],[-168,72]]]}},{"type":"Feature","properties":{"name":"South America"},"geometry":{"type":"Polygon","coordinates":[[[-82,12],[-66,11],[-51,4],[-35,-5],[-38,-24],[-50,-54],[-67,-56],[-75,-35],[-81,-5],[-82,12]]]}},{"type":"Feature","properties":{"name":"Europe"},"geometry":{"type":"Polygon","coordinates":[[[-12,36],[-6,44],[5,47],[18,42],[30,48],[42,57],[30,70],[6,70],[-9,58],[-12,36]]]}},{"type":"Feature","properties":{"name":"Africa"},"geometry":{"type":"Polygon","coordinates":[[[-18,35],[8,37],[33,31],[51,11],[43,-13],[29,-35],[7,-35],[-11,-5],[-18,35]]]}},{"type":"Feature","properties":{"name":"Asia"},"geometry":{"type":"Polygon","coordinates":[[[30,5],[50,22],[76,8],[95,18],[112,5],[134,24],[154,35],[171,53],[148,72],[95,75],[62,63],[38,55],[30,5]]]}},{"type":"Feature","properties":{"name":"Australia"},"geometry":{"type":"Polygon","coordinates":[[[112,-11],[137,-9],[153,-18],[154,-39],[133,-44],[113,-34],[112,-11]]]}},{"type":"Feature","properties":{"name":"Greenland"},"geometry":{"type":"Polygon","coordinates":[[[-73,60],[-38,59],[-20,73],[-40,84],[-65,80],[-73,60]]]}}]}
